[{"CCSDS_OMM_VERS":"2.0","COMMENT":"GENERATED VIA SPACE-TRACK.ORG API","CREATION_DATE":"2020-07-24T02:16:13","ORIGINATOR":"18 SPCS","OBJECT_NAME":"STARLINK-1098","OBJECT_ID":"2020-001D","CENTER_NAME":"EARTH","REF_FRAME":"TEME","TIME_SYSTEM":"UTC","MEAN_ELEMENT_THEORY":"SGP4","EPOCH":"2020-07-23T22:00:00.999936","MEAN_MOTION":"15.05554689","ECCENTRICITY":"0.00013080","INCLINATION":"53.0008","RA_OF_ASC_NODE":"210.8496","ARG_OF_PERICENTER":"110.3951","MEAN_ANOMALY":"238.1951","EPHEMERIS_TYPE":"0","CLASSIFICATION_TYPE":"U","NORAD_CAT_ID":"44917","ELEMENT_SET_NO":"999","REV_AT_EPOCH":"177","BSTAR":"0.00302420000000","MEAN_MOTION_DOT":"0.00044029","MEAN_MOTION_DDOT":"0.0000000000000","SEMIMAJOR_AXIS":"6927.940","PERIOD":"95.645","APOAPSIS":"550.711","PERIAPSIS":"548.899","OBJECT_TYPE":"PAYLOAD","RCS_SIZE":"LARGE","COUNTRY_CODE":"US","LAUNCH_DATE":"2020-01-07","SITE":"AFETR","DECAY_DATE":null,"FILE":"2790127","GP_ID":"158112395","TLE_LINE0":"0 STARLINK-1098","TLE_LINE1":"1 44917U 20001D   20205.91667824 +.00044029 +00000-0 +30242-2 0  9992","TLE_LINE2":"2 44917 053.0008 210.8496 0001308 110.3951 238.1951 15.05554689001777"},{"CCSDS_OMM_VERS":"2.0","COMMENT":"GENERATED VIA SPACE-TRACK.ORG API","CREATION_DATE":"2020-07-24T14:46:10","ORIGINATOR":"18 SPCS","OBJECT_NAME":"STARLINK-1098","OBJECT_ID":"2020-001D","CENTER_NAME":"EARTH","REF_FRAME":"TEME","TIME_SYSTEM":"UTC","MEAN_ELEMENT_THEORY":"SGP4","EPOCH":"2020-07-24T14:00:01.999872","MEAN_MOTION":"15.05584229","ECCENTRICITY":"0.00012270","INCLINATION":"53.0006","RA_OF_ASC_NODE":"207.8585","ARG_OF_PERICENTER":"99.8057","MEAN_ANOMALY":"264.2191","EPHEMERIS_TYPE":"0","CLASSIFICATION_TYPE":"U","NORAD_CAT_ID":"44917","ELEMENT_SET_NO":"999","REV_AT_EPOCH":"3026","BSTAR":"-0.00152890000000","MEAN_MOTION_DOT":"-0.00022487","MEAN_MOTION_DDOT":"0.0000000000000","SEMIMAJOR_AXIS":"6927.849","PERIOD":"95.643","APOAPSIS":"550.564","PERIAPSIS":"548.864","OBJECT_TYPE":"PAYLOAD","RCS_SIZE":"LARGE","COUNTRY_CODE":"US","LAUNCH_DATE":"2020-01-07","SITE":"AFETR","DECAY_DATE":null,"FILE":"2790477","GP_ID":"158140438","TLE_LINE0":"0 STARLINK-1098","TLE_LINE1":"1 44917U 20001D   20206.58335648 -.00022487  00000-0 -15289-2 0  9992","TLE_LINE2":"2 44917  53.0006 207.8585 0001227  99.8057 264.2191 15.05584229 30263"},{"CCSDS_OMM_VERS":"2.0","COMMENT":"GENERATED VIA SPACE-TRACK.ORG API","CREATION_DATE":"2020-07-25T02:37:17","ORIGINATOR":"18 SPCS","OBJECT_NAME":"STARLINK-1098","OBJECT_ID":"2020-001D","CENTER_NAME":"EARTH","REF_FRAME":"TEME","TIME_SYSTEM":"UTC","MEAN_ELEMENT_THEORY":"SGP4","EPOCH":"2020-07-24T22:00:00.999936","MEAN_MOTION":"15.05551645","ECCENTRICITY":"0.00013200","INCLINATION":"53.0007","RA_OF_ASC_NODE":"206.3607","ARG_OF_PERICENTER":"110.9727","MEAN_ANOMALY":"260.6916","EPHEMERIS_TYPE":"0","CLASSIFICATION_TYPE":"U","NORAD_CAT_ID":"44917","ELEMENT_SET_NO":"999","REV_AT_EPOCH":"176","BSTAR":"0.00287570000000","MEAN_MOTION_DOT":"0.00041837","MEAN_MOTION_DDOT":"0.0000000000000","SEMIMAJOR_AXIS":"6927.949","PERIOD":"95.646","APOAPSIS":"550.729","PERIAPSIS":"548.900","OBJECT_TYPE":"PAYLOAD","RCS_SIZE":"LARGE","COUNTRY_CODE":"US","LAUNCH_DATE":"2020-01-07","SITE":"AFETR","DECAY_DATE":null,"FILE":"2790705","GP_ID":"158183691","TLE_LINE0":"0 STARLINK-1098","TLE_LINE1":"1 44917U 20001D   20206.91667824 +.00041837 +00000-0 +28757-2 0  9995","TLE_LINE2":"2 44917 053.0007 206.3607 0001320 110.9727 260.6916 15.05551645001760"},{"CCSDS_OMM_VERS":"2.0","COMMENT":"GENERATED VIA SPACE-TRACK.ORG API","CREATION_DATE":"2020-07-25T17:07:59","ORIGINATOR":"18 SPCS","OBJECT_NAME":"STARLINK-1098","OBJECT_ID":"2020-001D","CENTER_NAME":"EARTH","REF_FRAME":"TEME","TIME_SYSTEM":"UTC","MEAN_ELEMENT_THEORY":"SGP4","EPOCH":"2020-07-25T06:00:00.999648","MEAN_MOTION":"15.05581171","ECCENTRICITY":"0.00013140","INCLINATION":"53.0008","RA_OF_ASC_NODE":"204.8661","ARG_OF_PERICENTER":"102.1304","MEAN_ANOMALY":"277.2186","EPHEMERIS_TYPE":"0","CLASSIFICATION_TYPE":"U","NORAD_CAT_ID":"44917","ELEMENT_SET_NO":"999","REV_AT_EPOCH":"176","BSTAR":"-0.00161320000000","MEAN_MOTION_DOT":"-0.00023706","MEAN_MOTION_DDOT":"0.0000000000000","SEMIMAJOR_AXIS":"6927.859","PERIOD":"95.644","APOAPSIS":"550.634","PERIAPSIS":"548.813","OBJECT_TYPE":"PAYLOAD","RCS_SIZE":"LARGE","COUNTRY_CODE":"US","LAUNCH_DATE":"2020-01-07","SITE":"AFETR","DECAY_DATE":null,"FILE":"2791107","GP_ID":"158214812","TLE_LINE0":"0 STARLINK-1098","TLE_LINE1":"1 44917U 20001D   20207.25001157 -.00023706 +00000-0 -16132-2 0  9995","TLE_LINE2":"2 44917 053.0008 204.8661 0001314 102.1304 277.2186 15.05581171001761"},{"CCSDS_OMM_VERS":"2.0","COMMENT":"GENERATED VIA SPACE-TRACK.ORG API","CREATION_DATE":"2020-07-25T14:36:10","ORIGINATOR":"18 SPCS","OBJECT_NAME":"STARLINK-1098","OBJECT_ID":"2020-001D","CENTER_NAME":"EARTH","REF_FRAME":"TEME","TIME_SYSTEM":"UTC","MEAN_ELEMENT_THEORY":"SGP4","EPOCH":"2020-07-25T14:00:01.000224","MEAN_MOTION":"15.05575368","ECCENTRICITY":"0.00012690","INCLINATION":"53.0007","RA_OF_ASC_NODE":"203.3696","ARG_OF_PERICENTER":"98.7602","MEAN_ANOMALY":"288.2775","EPHEMERIS_TYPE":"0","CLASSIFICATION_TYPE":"U","NORAD_CAT_ID":"44917","ELEMENT_SET_NO":"999","REV_AT_EPOCH":"3041","BSTAR":"0.00032742000000","MEAN_MOTION_DOT":"0.00004494","MEAN_MOTION_DDOT":"0.0000000000000","SEMIMAJOR_AXIS":"6927.877","PERIOD":"95.644","APOAPSIS":"550.621","PERIAPSIS":"548.862","OBJECT_TYPE":"PAYLOAD","RCS_SIZE":"LARGE","COUNTRY_CODE":"US","LAUNCH_DATE":"2020-01-07","SITE":"AFETR","DECAY_DATE":null,"FILE":"2791076","GP_ID":"158193577","TLE_LINE0":"0 STARLINK-1098","TLE_LINE1":"1 44917U 20001D   20207.58334491  .00004494  00000-0  32742-3 0  9998","TLE_LINE2":"2 44917  53.0007 203.3696 0001269  98.7602 288.2775 15.05575368 30413"},{"CCSDS_OMM_VERS":"2.0","COMMENT":"GENERATED VIA SPACE-TRACK.ORG API","CREATION_DATE":"2020-07-26T02:27:25","ORIGINATOR":"18 SPCS","OBJECT_NAME":"STARLINK-1098","OBJECT_ID":"2020-001D","CENTER_NAME":"EARTH","REF_FRAME":"TEME","TIME_SYSTEM":"UTC","MEAN_ELEMENT_THEORY":"SGP4","EPOCH":"2020-07-25T22:00:00.999936","MEAN_MOTION":"15.05581183","ECCENTRICITY":"0.00014280","INCLINATION":"53.0007","RA_OF_ASC_NODE":"201.8719","ARG_OF_PERICENTER":"107.5438","MEAN_ANOMALY":"287.1896","EPHEMERIS_TYPE":"0","CLASSIFICATION_TYPE":"U","NORAD_CAT_ID":"44917","ELEMENT_SET_NO":"999","REV_AT_EPOCH":"176","BSTAR":"0.00305050000000","MEAN_MOTION_DOT":"0.00044449","MEAN_MOTION_DDOT":"0.0000000000000","SEMIMAJOR_AXIS":"6927.859","PERIOD":"95.644","APOAPSIS":"550.713","PERIAPSIS":"548.734","OBJECT_TYPE":"PAYLOAD","RCS_SIZE":"LARGE","COUNTRY_CODE":"US","LAUNCH_DATE":"2020-01-07","SITE":"AFETR","DECAY_DATE":null,"FILE":"2791302","GP_ID":"158237248","TLE_LINE0":"0 STARLINK-1098","TLE_LINE1":"1 44917U 20001D   20207.91667824 +.00044449 +00000-0 +30505-2 0  9992","TLE_LINE2":"2 44917 053.0007 201.8719 0001428 107.5438 287.1896 15.05581183001765"},{"CCSDS_OMM_VERS":"2.0","COMMENT":"GENERATED VIA SPACE-TRACK.ORG API","CREATION_DATE":"2020-07-26T06:26:10","ORIGINATOR":"18 SPCS","OBJECT_NAME":"STARLINK-1098","OBJECT_ID":"2020-001D","CENTER_NAME":"EARTH","REF_FRAME":"TEME","TIME_SYSTEM":"UTC","MEAN_ELEMENT_THEORY":"SGP4","EPOCH":"2020-07-26T06:00:00.999648","MEAN_MOTION":"15.05612569","ECCENTRICITY":"0.00014660","INCLINATION":"53.0008","RA_OF_ASC_NODE":"200.3772","ARG_OF_PERICENTER":"98.4231","MEAN_ANOMALY":"304.0339","EPHEMERIS_TYPE":"0","CLASSIFICATION_TYPE":"U","NORAD_CAT_ID":"44917","ELEMENT_SET_NO":"999","REV_AT_EPOCH":"3051","BSTAR":"-0.00145460000000","MEAN_MOTION_DOT":"-0.00021428","MEAN_MOTION_DDOT":"0.0000000000000","SEMIMAJOR_AXIS":"6927.762","PERIOD":"95.642","APOAPSIS":"550.643","PERIAPSIS":"548.612","OBJECT_TYPE":"PAYLOAD","RCS_SIZE":"LARGE","COUNTRY_CODE":"US","LAUNCH_DATE":"2020-01-07","SITE":"AFETR","DECAY_DATE":null,"FILE":"2791397","GP_ID":"158242055","TLE_LINE0":"0 STARLINK-1098","TLE_LINE1":"1 44917U 20001D   20208.25001157 -.00021428  00000-0 -14546-2 0  9992","TLE_LINE2":"2 44917  53.0008 200.3772 0001466  98.4231 304.0339 15.05612569 30519"},{"CCSDS_OMM_VERS":"2.0","COMMENT":"GENERATED VIA SPACE-TRACK.ORG API","CREATION_DATE":"2020-07-26T17:37:20","ORIGINATOR":"18 SPCS","OBJECT_NAME":"STARLINK-1098","OBJECT_ID":"2020-001D","CENTER_NAME":"EARTH","REF_FRAME":"TEME","TIME_SYSTEM":"UTC","MEAN_ELEMENT_THEORY":"SGP4","EPOCH":"2020-07-26T14:00:01.999872","MEAN_MOTION":"15.05621634","ECCENTRICITY":"0.00013890","INCLINATION":"53.0008","RA_OF_ASC_NODE":"198.8804","ARG_OF_PERICENTER":"96.6485","MEAN_ANOMALY":"313.5970","EPHEMERIS_TYPE":"0","CLASSIFICATION_TYPE":"U","NORAD_CAT_ID":"44917","ELEMENT_SET_NO":"999","REV_AT_EPOCH":"176","BSTAR":"-0.00202330000000","MEAN_MOTION_DOT":"-0.00029669","MEAN_MOTION_DDOT":"0.0000000000000","SEMIMAJOR_AXIS":"6927.735","PERIOD":"95.641","APOAPSIS":"550.562","PERIAPSIS":"548.637","OBJECT_TYPE":"PAYLOAD","RCS_SIZE":"LARGE","COUNTRY_CODE":"US","LAUNCH_DATE":"2020-01-07","SITE":"AFETR","DECAY_DATE":null,"FILE":"2791649","GP_ID":"158265810","TLE_LINE0":"0 STARLINK-1098","TLE_LINE1":"1 44917U 20001D   20208.58335648 -.00029669 +00000-0 -20233-2 0  9998","TLE_LINE2":"2 44917 053.0008 198.8804 0001389 096.6485 313.5970 15.05621634001765"}]